[{"OBJECT_NAME":"STARLINK-35883","OBJECT_ID":"2025-283Q","EPOCH":"2026-03-09T06:53:22.921440","MEAN_MOTION":15.3018996,"ECCENTRICITY":0.00011582,"INCLINATION":53.1613,"RA_OF_ASC_NODE":25.954,"ARG_OF_PERICENTER":92.5073,"MEAN_ANOMALY":267.606,"EPHEMERIS_TYPE":0,"CLASSIFICATION_TYPE":"U","NORAD_CAT_ID":66892,"ELEMENT_SET_NO":999,"REV_AT_EPOCH":1578,"BSTAR":0.0014095104,"MEAN_MOTION_DOT":0.00041607,"MEAN_MOTION_DDOT":0},{"OBJECT_NAME":"SLS DEB","OBJECT_ID":"2022-156G","EPOCH":"2026-03-08T17:53:10.813056","MEAN_MOTION":12.40383613,"ECCENTRICITY":0.14180709,"INCLINATION":30.5405,"RA_OF_ASC_NODE":304.991,"ARG_OF_PERICENTER":67.3282,"MEAN_ANOMALY":307.0829,"EPHEMERIS_TYPE":0,"CLASSIFICATION_TYPE":"U","NORAD_CAT_ID":55907,"ELEMENT_SET_NO":999,"REV_AT_EPOCH":13507,"BSTAR":0.011881902,"MEAN_MOTION_DOT":0.00109897,"MEAN_MOTION_DDOT":0}]
